[{"OBJECT_NAME":"STARLINK-34806","OBJECT_ID":"2025-165K","EPOCH":"2026-03-09T22:28:33.330432","MEAN_MOTION":15.05665154,"ECCENTRICITY":3.883e-5,"INCLINATION":97.602,"RA_OF_ASC_NODE":147.412,"ARG_OF_PERICENTER":127.2294,"MEAN_ANOMALY":232.8968,"EPHEMERIS_TYPE":0,"CLASSIFICATION_TYPE":"U","NORAD_CAT_ID":65065,"ELEMENT_SET_NO":999,"REV_AT_EPOCH":3482,"BSTAR":0.00069838759,"MEAN_MOTION_DOT":0.00010035,"MEAN_MOTION_DDOT":0},{"OBJECT_NAME":"IRIDIUM 33 DEB","OBJECT_ID":"1997-051GB","EPOCH":"2026-03-09T18:44:19.060224","MEAN_MOTION":15.02189476,"ECCENTRICITY":0.0010038,"INCLINATION":86.3931,"RA_OF_ASC_NODE":331.664,"ARG_OF_PERICENTER":138.3098,"MEAN_ANOMALY":291.9123,"EPHEMERIS_TYPE":0,"CLASSIFICATION_TYPE":"U","NORAD_CAT_ID":34486,"ELEMENT_SET_NO":999,"REV_AT_EPOCH":90290,"BSTAR":0.0023709806,"MEAN_MOTION_DOT":0.00031372,"MEAN_MOTION_DDOT":0}]
